0 FENGYUN 1C DEB
1 29781U 99025BX  13281.00029247  .00000732  00000-0  53125-3 0  1893
2 29781 099.1786 299.5731 0065146 266.9820 155.3217 13.98708937343515
0 FENGYUN 1C DEB
1 29781U 99025BX  13283.99601488  .00000701  00000-0  50965-3 0  1903
2 29781 099.1782 302.5724 0065314 258.6965 119.9345 13.98715612343935
0 FENGYUN 1C DEB
1 29781U 99025BX  13286.00839383  .00000558  00000-0  41230-3 0  1911
2 29781 099.1776 304.5870 0065502 253.1001 173.1016 13.98719040344210
0 FENGYUN 1C DEB
1 29781U 99025BX  13288.29684150  .00000697  00000-0  50719-3 0  1921
2 29781 099.1772 306.8777 0065677 246.7721 176.3846 13.98723237344531
0 FENGYUN 1C DEB
1 29781U 99025BX  13290.53245940  .00000506  00000-0  37639-3 0  1937
2 29781 099.1768 309.1156 0065863 240.5989 273.6725 13.98727190344841
0 FENGYUN 1C DEB
1 29781U 99025BX  13292.53693706  .00000495  00000-0  36926-3 0  1942
2 29781 099.1767 311.1218 0066030 235.0782 287.0829 13.98729542345128
0 FENGYUN 1C DEB
1 29781U 99025BX  13294.54015726  .00000503  00000-0  37418-3 0  1953
2 29781 099.1765 313.1266 0066170 229.5540 294.1860 13.98732282345406
